     3.02           N: GNSS NAV DATA    G: GPS              RINEX VERSION / TYPE                                                
Версия от 220209                        20220407 04:02:45UTCPGM / RUN BY / DATE                                                 
GPUT  0.4656612873D-08 0.133226763D-13 233472 2204          TIME SYSTEM CORR
                                                            END OF HEADER                                                       
G19 2022 04 03 22 00 00 0.139680691063D-03 0.500222085975D-11 0.000000000000D+00
     0.610000000000D+02-0.884687500000D+02 0.444554231754D-08-0.719967979042D-01
    -0.454112887383D-05 0.909157842398D-02 0.531971454620D-05 0.515369087601D+04
     0.792000000000D+05-0.819563865662D-07 0.254408780571D+01-0.428408384323D-07
     0.978168664926D+00 0.288343750000D+03 0.202950429545D+01-0.832463246864D-08
    -0.309298597814D-09 0.100000000000D+01 0.220400000000D+04 0.000000000000D+00
     0.200000000000D+01 0.000000000000D+00-0.158324837685D-07 0.610000000000D+02
     0.720000000000D+05
G20 2022 04 03 22 00 00 0.515996944159D-03-0.227373675443D-12 0.000000000000D+00
     0.380000000000D+02 0.342500000000D+02 0.501699469225D-08 0.264081222452D+01
     0.170432031155D-05 0.489598943386D-02 0.798888504505D-05 0.515353834724D+04
     0.792000000000D+05-0.540167093277D-07-0.190780431891D+01 0.447034835815D-07
     0.942113702977D+00 0.217687500000D+03-0.313016237871D+01-0.822319967213D-08
     0.380372986919D-09 0.100000000000D+01 0.220400000000D+04 0.000000000000D+00
     0.200000000000D+01 0.000000000000D+00-0.838190317154D-08 0.380000000000D+02
     0.720000000000D+05
G21 2022 04 03 22 00 00 0.160104595125D-03 0.341060513165D-12 0.000000000000D+00
     0.250000000000D+02-0.451875000000D+02 0.423124767702D-08-0.226401836415D+01
    -0.206008553505D-05 0.244896975346D-01 0.116620212793D-04 0.515356782722D+04
     0.792000000000D+05-0.931322574615D-07-0.287836322046D+01 0.515952706337D-06
     0.960128248830D+00 0.150437500000D+03-0.973830138517D+00-0.756138639067D-08
     0.357157734196D-11 0.100000000000D+01 0.220400000000D+04 0.000000000000D+00
     0.200000000000D+01 0.000000000000D+00-0.102445483208D-07 0.250000000000D+02
     0.720000000000D+05
G22 2022 04 03 22 00 00 0.237743370235D-03 0.591171556152D-11 0.000000000000D+00
     0.350000000000D+02-0.496562500000D+02 0.451197365610D-08-0.258557565627D+01
    -0.252388417721D-05 0.131921799621D-01 0.671669840813D-05 0.515367021370D+04
     0.792000000000D+05 0.126659870148D-06-0.621661935126D+00-0.670552253723D-07
     0.961459486727D+00 0.249562500000D+03-0.186243515358D+01-0.783461205733D-08
    -0.372158359032D-09 0.100000000000D+01 0.220400000000D+04 0.000000000000D+00
     0.200000000000D+01 0.000000000000D+00-0.977888703346D-08 0.350000000000D+02
     0.720000000000D+05
G23 2022  4  3 22  0  0-0.121807679534D-04-0.295585778076D-11 0.000000000000D+00
     0.138000000000D+03 0.265937500000D+02 0.460447750926D-08 0.896193797269D+00
     0.137090682983D-05 0.203192525078D-02 0.679865479469D-05 0.515370045281D+04
     0.792000000000D+05 0.502914190292D-07-0.177969694112D+01-0.167638063431D-07
     0.967662984990D+00 0.249656250000D+03 0.299853317047D+01-0.807997942072D-08
     0.303226916332D-09 0.100000000000D+01 0.220400000000D+04 0.000000000000D+00
     0.200000000000D+01 0.000000000000D+00-0.838190317154D-08 0.394000000000D+03
     0.720000000000D+05
G24 2022  4  3 22  0  0 0.261083245277D-03-0.454747350886D-11 0.000000000000D+00
     0.140000000000D+02 0.284687500000D+02 0.475805533496D-08 0.194273847787D+01
     0.143796205521D-05 0.123987632105D-01 0.121258199215D-04 0.515369945717D+04
     0.792000000000D+05-0.273808836937D-06 0.264586514942D+00-0.193715095520D-06
     0.934872679805D+00 0.130468750000D+03 0.812803796289D+00-0.811248077453D-08
    -0.185722021782D-09 0.100000000000D+01 0.220400000000D+04 0.000000000000D+00
     0.200000000000D+01 0.000000000000D+00 0.232830643654D-08 0.140000000000D+02
     0.720000000000D+05
G25 2022 04 03 22 00 00 0.307211652398D-03 0.500222085975D-11 0.000000000000D+00
     0.420000000000D+02 0.932187500000D+02 0.488198906873D-08 0.562975627566D-01
     0.478327274323D-05 0.105604960117D-01 0.495649874210D-05 0.515369124031D+04
     0.792000000000D+05-0.521540641785D-07 0.138374828242D+01 0.119209289551D-06
     0.957004996265D+00 0.287093750000D+03 0.997138126165D+00-0.856499962376D-08
     0.369301097159D-09 0.100000000000D+01 0.220400000000D+04 0.000000000000D+00
     0.200000000000D+01 0.000000000000D+00 0.558793544769D-08 0.420000000000D+02
     0.720000000000D+05
G26 2022 04 03 22 00 00 0.195920467377D-03 0.284217094304D-11 0.000000000000D+00
     0.930000000000D+02 0.912500000000D+02 0.518235872318D-08-0.601395370257D+00
     0.492855906486D-05 0.691570760682D-02 0.444054603577D-05 0.515372849464D+04
     0.792000000000D+05 0.949949026108D-07 0.133582760656D+01 0.186264514923D-07
     0.937877147811D+00 0.278875000000D+03 0.388143291475D+00-0.862428780763D-08
     0.383587406527D-09 0.100000000000D+01 0.220400000000D+04 0.000000000000D+00
     0.200000000000D+01 0.000000000000D+00 0.698491930962D-08 0.930000000000D+02
     0.720000000000D+05
G28 2022  4  3 22  0  0 0.374042894691D-03-0.193267624127D-11 0.000000000000D+00
     0.480000000000D+02 0.868437500000D+02 0.449590155806D-08-0.197595008298D+01
     0.492855906486D-05 0.166669152677D-01 0.324100255966D-05 0.515369173050D+04
     0.792000000000D+05 0.670552253723D-07 0.148315723490D+01 0.359490513802D-06
     0.968574185460D+00 0.321625000000D+03-0.128341542109D+01-0.817605485122D-08
     0.378944355982D-09 0.100000000000D+01 0.220400000000D+04 0.000000000000D+00
     0.280000000000D+01 0.100000000000D+01-0.111758708954D-07 0.480000000000D+02
     0.720180000000D+05
G29 2022  4  3 22  0  0-0.499010551721D-03-0.432009983342D-11 0.000000000000D+00
     0.210000000000D+02-0.794062500000D+02 0.438482550272D-08-0.228533812324D+01
    -0.401213765144D-05 0.199540250469D-02 0.431202352047D-05 0.515372683907D+04
     0.792000000000D+05 0.000000000000D+00 0.251237029492D+01 0.651925802231D-07
     0.981391622672D+00 0.310406250000D+03 0.223470217780D+01-0.811676666734D-08
    -0.267868300647D-09 0.100000000000D+01 0.220400000000D+04 0.000000000000D+00
     0.200000000000D+01 0.000000000000D+00-0.102445483208D-07 0.210000000000D+02
     0.720000000000D+05
G30 2022 04 03 22 00 00-0.522066373378D-03-0.181898940355D-11 0.000000000000D+00
     0.830000000000D+02 0.531562500000D+02 0.470591030577D-08 0.101748302591D+01
     0.282935798168D-05 0.565201987047D-02 0.114459544420D-04 0.515379606628D+04
     0.792000000000D+05-0.707805156708D-07 0.360503707261D+00 0.894069671631D-07
     0.936517485415D+00 0.146562500000D+03-0.272839965346D+01-0.807140763510D-08
    -0.149649090628D-09 0.100000000000D+01 0.220400000000D+04 0.000000000000D+00
     0.200000000000D+01 0.000000000000D+00 0.372529029846D-08 0.830000000000D+02
     0.720000000000D+05
G31 2022 04 03 22 00 00-0.171855557710D-03-0.170530256582D-11 0.000000000000D+00
     0.730000000000D+02 0.353750000000D+02 0.429160733410D-08 0.516218351938D+00
     0.203587114811D-05 0.104306607973D-01 0.114850699902D-04 0.515371817779D+04
     0.792000000000D+05 0.614672899246D-07 0.366362669299D+00 0.260770320892D-06
     0.955574693944D+00 0.156000000000D+03 0.384713857471D+00-0.793354474970D-08
    -0.617882880159D-10 0.100000000000D+01 0.220400000000D+04 0.000000000000D+00
     0.200000000000D+01 0.000000000000D+00-0.135041773319D-07 0.730000000000D+02
     0.720000000000D+05
G32 2022 04 03 22 00 00-0.979802571237D-04-0.784439180279D-11 0.000000000000D+00
     0.500000000000D+02-0.418125000000D+02 0.472841124302D-08-0.178739955445D+01
    -0.216998159885D-05 0.584899447858D-02 0.602193176746D-05 0.515357708168D+04
     0.792000000000D+05 0.104308128357D-06-0.711935581558D+00-0.135973095894D-06
     0.958104063211D+00 0.264000000000D+03-0.230727181493D+01-0.809069415274D-08
    -0.385373195198D-09 0.100000000000D+01 0.220400000000D+04 0.000000000000D+00
     0.200000000000D+01 0.000000000000D+00 0.465661287308D-09 0.500000000000D+02
     0.720000000000D+05
G06 2022 04 03 23 59 44 0.254129525274D-03 0.133013600134D-10 0.000000000000D+00
     0.300000000000D+01-0.473750000000D+02 0.382444501777D-08 0.296037501509D+01
    -0.228919088840D-05 0.266637315508D-02 0.117607414722D-04 0.515370206261D+04
     0.863840000000D+05 0.223517417908D-07-0.279455482198D+01 0.102445483208D-06
     0.986978503891D+00 0.167406250000D+03-0.892970514755D+00-0.756031491746D-08
     0.978612191697D-10 0.100000000000D+01 0.220400000000D+04 0.000000000000D+00
     0.200000000000D+01 0.000000000000D+00 0.372529029846D-08 0.300000000000D+01
     0.800400000000D+05
G26 2022 04 03 23 59 44 0.195942353457D-03 0.284217094304D-11 0.000000000000D+00
     0.300000000000D+01 0.960625000000D+02 0.513271379813D-08 0.446349893567D+00
     0.507570803165D-05 0.691547594033D-02 0.488199293613D-05 0.515372799683D+04
     0.863840000000D+05 0.521540641785D-07 0.133576580851D+01 0.949949026108D-07
     0.937879914189D+00 0.272906250000D+03 0.388217060582D+00-0.859785813530D-08
     0.356800576462D-09 0.100000000000D+01 0.220400000000D+04 0.000000000000D+00
     0.200000000000D+01 0.000000000000D+00 0.698491930962D-08 0.300000000000D+01
     0.801900000000D+05
G01 2022 04 04 00 00 00 0.393257010728D-03-0.886757334229D-11 0.000000000000D+00
     0.480000000000D+02-0.493437500000D+02 0.366336687965D-08 0.269848212001D+01
    -0.267662107945D-05 0.116628460819D-01 0.115018337965D-04 0.515367398834D+04
     0.864000000000D+05-0.204890966415D-07-0.278628623637D+01-0.169500708580D-06
     0.987618198468D+00 0.170593750000D+03 0.888380743870D+00-0.734816322335D-08
     0.939324840936D-10 0.100000000000D+01 0.220400000000D+04 0.000000000000D+00
     0.200000000000D+01 0.000000000000D+00 0.512227416039D-08 0.480000000000D+02
     0.792000000000D+05
